SL-16 R/B               
1 25400U 98043G   26019.26618005  .00000051  00000+0  40072-4 0  9993
2 25400  98.8177 332.3043 0010262 152.3254 207.8473 14.26035325431947
SL-16 R/B               
1 25407U 98045B   26019.20056750  .00000317  00000+0  18443-3 0  9990
2 25407  71.0117 285.6489 0005269 106.4315 253.7387 14.16182382420097
ISS (ZARYA)             
1 25544U 98067A   26019.20762778  .00013941  00000+0  25695-3 0  9994
2 25544  51.6336 316.9875 0007809  34.7495 325.4002 15.49401693548668
CZ-4B R/B               
1 25732U 99025C   26019.13215315  .00000046  00000+0  42753-4 0  9997
2 25732  98.6715  64.5663 0037961 126.6565 253.0069 14.18253109381140
OKEAN-O                 
1 25860U 99039A   26019.17216626  .00000692  00000+0  97892-4 0  9995
2 25860  97.9544  79.5408 0001765 104.5499 255.5909 14.80233731427061
SL-16 R/B               
1 25861U 99039B   26019.13141842  .00000518  00000+0  72562-4 0  9993
2 25861  98.0068  78.2754 0015952  60.9430 299.3378 14.81646133429522
DELTA 2 R/B             
1 25876U 99041E   26019.31048954  .00002729  00000+0  47633-3 0  9998
2 25876  51.7627 138.4548 0503392 202.5404 155.2696 14.11574784356055
HELIOS 1B               
1 25977U 99064A   26019.27493509  .00001827  00000+0  20817-3 0  9993
2 25977  98.1746 280.0559 0000836 136.2691 223.8591 14.87453921677915
TERRA                   
1 25994U 99068A   26019.26772147  .00000461  00000+0  10310-3 0  9993
2 25994  97.9692  74.5650 0002061  12.6448  52.2191 14.60948611387866
SL-16 R/B               
1 26070U 00006B   26018.92046923 -.00000198  00000+0 -76430-4 0  9996
2 26070  71.0001 202.4814 0018868 258.7190 101.1812 14.15812250341517
TITAN 4B R/B            
1 26474U 00047B   26019.26076940  .00004075  00000+0  26094-3 0  9995
2 26474  67.9880 179.4529 0036829  97.7460 262.7873 15.09080123385450
ENVISAT                 
1 27386U 02009A   26019.33223749  .00000124  00000+0  54173-4 0  9998
2 27386  98.3652 334.1303 0001159  92.1979  63.0437 14.39014668252072
