CCSDS_OMM_VERS = 2.0
CREATION_DATE  = 
ORIGINATOR     = 

OBJECT_NAME    = SL-16 R/B
OBJECT_ID      = 1998-043G
CENTER_NAME    = EARTH
REF_FRAME      = TEME
TIME_SYSTEM    = UTC
MEAN_ELEMENT_THEORY = SGP/SGP4

EPOCH          = 2026-01-19T06:23:17.956320
MEAN_MOTION    = 14.26035325
ECCENTRICITY   = .0010262
INCLINATION    = 98.8177
RA_OF_ASC_NODE = 332.3043
ARG_OF_PERICENTER = 152.3254
MEAN_ANOMALY   = 207.8473

EPHEMERIS_TYPE = 0
CLASSIFICATION_TYPE = U
NORAD_CAT_ID   = 25400
ELEMENT_SET_NO = 999
REV_AT_EPOCH   = 43194
BSTAR          = .40071547E-4
MEAN_MOTION_DOT = .51E-6
MEAN_MOTION_DDOT = 0

CCSDS_OMM_VERS = 2.0
CREATION_DATE  = 
ORIGINATOR     = 

OBJECT_NAME    = SL-16 R/B
OBJECT_ID      = 1998-045B
CENTER_NAME    = EARTH
REF_FRAME      = TEME
TIME_SYSTEM    = UTC
MEAN_ELEMENT_THEORY = SGP/SGP4

EPOCH          = 2026-01-19T04:48:49.032000
MEAN_MOTION    = 14.16182382
ECCENTRICITY   = .0005269
INCLINATION    = 71.0117
RA_OF_ASC_NODE = 285.6489
ARG_OF_PERICENTER = 106.4315
MEAN_ANOMALY   = 253.7387

EPHEMERIS_TYPE = 0
CLASSIFICATION_TYPE = U
NORAD_CAT_ID   = 25407
ELEMENT_SET_NO = 999
REV_AT_EPOCH   = 42009
BSTAR          = .18442737E-3
MEAN_MOTION_DOT = .317E-5
MEAN_MOTION_DDOT = 0

CCSDS_OMM_VERS = 2.0
CREATION_DATE  = 
ORIGINATOR     = 

OBJECT_NAME    = ISS (ZARYA)
OBJECT_ID      = 1998-067A
CENTER_NAME    = EARTH
REF_FRAME      = TEME
TIME_SYSTEM    = UTC
MEAN_ELEMENT_THEORY = SGP/SGP4

EPOCH          = 2026-01-19T04:58:59.040192
MEAN_MOTION    = 15.49401693
ECCENTRICITY   = .00078097
INCLINATION    = 51.6336
RA_OF_ASC_NODE = 316.9875
ARG_OF_PERICENTER = 34.7495
MEAN_ANOMALY   = 325.4002

EPHEMERIS_TYPE = 0
CLASSIFICATION_TYPE = U
NORAD_CAT_ID   = 25544
ELEMENT_SET_NO = 999
REV_AT_EPOCH   = 54866
BSTAR          = .25694505E-3
MEAN_MOTION_DOT = .13941E-3
MEAN_MOTION_DDOT = 0

CCSDS_OMM_VERS = 2.0
CREATION_DATE  = 
ORIGINATOR     = 

OBJECT_NAME    = CZ-4B R/B
OBJECT_ID      = 1999-025C
CENTER_NAME    = EARTH
REF_FRAME      = TEME
TIME_SYSTEM    = UTC
MEAN_ELEMENT_THEORY = SGP/SGP4

EPOCH          = 2026-01-19T03:10:18.032160
MEAN_MOTION    = 14.18253109
ECCENTRICITY   = .00379614
INCLINATION    = 98.6715
RA_OF_ASC_NODE = 64.5663
ARG_OF_PERICENTER = 126.6565
MEAN_ANOMALY   = 253.0069

EPHEMERIS_TYPE = 0
CLASSIFICATION_TYPE = U
NORAD_CAT_ID   = 25732
ELEMENT_SET_NO = 999
REV_AT_EPOCH   = 38114
BSTAR          = .42753071E-4
MEAN_MOTION_DOT = .46E-6
MEAN_MOTION_DDOT = 0

CCSDS_OMM_VERS = 2.0
CREATION_DATE  = 
ORIGINATOR     = 

OBJECT_NAME    = OKEAN-O
OBJECT_ID      = 1999-039A
CENTER_NAME    = EARTH
REF_FRAME      = TEME
TIME_SYSTEM    = UTC
MEAN_ELEMENT_THEORY = SGP/SGP4

EPOCH          = 2026-01-19T04:07:55.164864
MEAN_MOTION    = 14.80233731
ECCENTRICITY   = .0001765
INCLINATION    = 97.9544
RA_OF_ASC_NODE = 79.5408
ARG_OF_PERICENTER = 104.5499
MEAN_ANOMALY   = 255.5909

EPHEMERIS_TYPE = 0
CLASSIFICATION_TYPE = U
NORAD_CAT_ID   = 25860
ELEMENT_SET_NO = 999
REV_AT_EPOCH   = 42706
BSTAR          = .97892278E-4
MEAN_MOTION_DOT = .692E-5
MEAN_MOTION_DDOT = 0

CCSDS_OMM_VERS = 2.0
CREATION_DATE  = 
ORIGINATOR     = 

OBJECT_NAME    = SL-16 R/B
OBJECT_ID      = 1999-039B
CENTER_NAME    = EARTH
REF_FRAME      = TEME
TIME_SYSTEM    = UTC
MEAN_ELEMENT_THEORY = SGP/SGP4

EPOCH          = 2026-01-19T03:09:14.551488
MEAN_MOTION    = 14.81646133
ECCENTRICITY   = .00159528
INCLINATION    = 98.0068
RA_OF_ASC_NODE = 78.2754
ARG_OF_PERICENTER = 60.9430
MEAN_ANOMALY   = 299.3378

EPHEMERIS_TYPE = 0
CLASSIFICATION_TYPE = U
NORAD_CAT_ID   = 25861
ELEMENT_SET_NO = 999
REV_AT_EPOCH   = 42952
BSTAR          = .72562366E-4
MEAN_MOTION_DOT = .518E-5
MEAN_MOTION_DDOT = 0

CCSDS_OMM_VERS = 2.0
CREATION_DATE  = 
ORIGINATOR     = 

OBJECT_NAME    = DELTA 2 R/B
OBJECT_ID      = 1999-041E
CENTER_NAME    = EARTH
REF_FRAME      = TEME
TIME_SYSTEM    = UTC
MEAN_ELEMENT_THEORY = SGP/SGP4

EPOCH          = 2026-01-19T07:27:06.296256
MEAN_MOTION    = 14.11574784
ECCENTRICITY   = .05033925
INCLINATION    = 51.7627
RA_OF_ASC_NODE = 138.4548
ARG_OF_PERICENTER = 202.5404
MEAN_ANOMALY   = 155.2696

EPHEMERIS_TYPE = 0
CLASSIFICATION_TYPE = U
NORAD_CAT_ID   = 25876
ELEMENT_SET_NO = 999
REV_AT_EPOCH   = 35605
BSTAR          = .47632966E-3
MEAN_MOTION_DOT = .2729E-4
MEAN_MOTION_DDOT = 0

CCSDS_OMM_VERS = 2.0
CREATION_DATE  = 
ORIGINATOR     = 

OBJECT_NAME    = HELIOS 1B
OBJECT_ID      = 1999-064A
CENTER_NAME    = EARTH
REF_FRAME      = TEME
TIME_SYSTEM    = UTC
MEAN_ELEMENT_THEORY = SGP/SGP4

EPOCH          = 2026-01-19T06:35:54.391776
MEAN_MOTION    = 14.87453921
ECCENTRICITY   = .00008366
INCLINATION    = 98.1746
RA_OF_ASC_NODE = 280.0559
ARG_OF_PERICENTER = 136.2691
MEAN_ANOMALY   = 223.8591

EPHEMERIS_TYPE = 0
CLASSIFICATION_TYPE = U
NORAD_CAT_ID   = 25977
ELEMENT_SET_NO = 999
REV_AT_EPOCH   = 67791
BSTAR          = .20816867E-3
MEAN_MOTION_DOT = .1827E-4
MEAN_MOTION_DDOT = 0

CCSDS_OMM_VERS = 2.0
CREATION_DATE  = 
ORIGINATOR     = 

OBJECT_NAME    = TERRA
OBJECT_ID      = 1999-068A
CENTER_NAME    = EARTH
REF_FRAME      = TEME
TIME_SYSTEM    = UTC
MEAN_ELEMENT_THEORY = SGP/SGP4

EPOCH          = 2026-01-19T06:25:31.135008
MEAN_MOTION    = 14.60948611
ECCENTRICITY   = .00020616
INCLINATION    = 97.9692
RA_OF_ASC_NODE = 74.5650
ARG_OF_PERICENTER = 12.6448
MEAN_ANOMALY   = 52.2191

EPHEMERIS_TYPE = 0
CLASSIFICATION_TYPE = U
NORAD_CAT_ID   = 25994
ELEMENT_SET_NO = 999
REV_AT_EPOCH   = 38786
BSTAR          = .10310487E-3
MEAN_MOTION_DOT = .461E-5
MEAN_MOTION_DDOT = 0

CCSDS_OMM_VERS = 2.0
CREATION_DATE  = 
ORIGINATOR     = 

OBJECT_NAME    = SL-16 R/B
OBJECT_ID      = 2000-006B
CENTER_NAME    = EARTH
REF_FRAME      = TEME
TIME_SYSTEM    = UTC
MEAN_ELEMENT_THEORY = SGP/SGP4

EPOCH          = 2026-01-18T22:05:28.541472
MEAN_MOTION    = 14.15812250
ECCENTRICITY   = .00188686
INCLINATION    = 71.0001
RA_OF_ASC_NODE = 202.4814
ARG_OF_PERICENTER = 258.7190
MEAN_ANOMALY   = 101.1812

EPHEMERIS_TYPE = 0
CLASSIFICATION_TYPE = U
NORAD_CAT_ID   = 26070
ELEMENT_SET_NO = 999
REV_AT_EPOCH   = 34151
BSTAR          = -.76429778E-4
MEAN_MOTION_DOT = -.198E-5
MEAN_MOTION_DDOT = 0

CCSDS_OMM_VERS = 2.0
CREATION_DATE  = 
ORIGINATOR     = 

OBJECT_NAME    = TITAN 4B R/B
OBJECT_ID      = 2000-047B
CENTER_NAME    = EARTH
REF_FRAME      = TEME
TIME_SYSTEM    = UTC
MEAN_ELEMENT_THEORY = SGP/SGP4

EPOCH          = 2026-01-19T06:15:30.476160
MEAN_MOTION    = 15.09080123
ECCENTRICITY   = .00368298
INCLINATION    = 67.9880
RA_OF_ASC_NODE = 179.4529
ARG_OF_PERICENTER = 97.7460
MEAN_ANOMALY   = 262.7873

EPHEMERIS_TYPE = 0
CLASSIFICATION_TYPE = U
NORAD_CAT_ID   = 26474
ELEMENT_SET_NO = 999
REV_AT_EPOCH   = 38545
BSTAR          = .26093697E-3
MEAN_MOTION_DOT = .4075E-4
MEAN_MOTION_DDOT = 0

CCSDS_OMM_VERS = 2.0
CREATION_DATE  = 
ORIGINATOR     = 

OBJECT_NAME    = ENVISAT
OBJECT_ID      = 2002-009A
CENTER_NAME    = EARTH
REF_FRAME      = TEME
TIME_SYSTEM    = UTC
MEAN_ELEMENT_THEORY = SGP/SGP4

EPOCH          = 2026-01-19T07:58:25.319136
MEAN_MOTION    = 14.39014668
ECCENTRICITY   = .0001159
INCLINATION    = 98.3652
RA_OF_ASC_NODE = 334.1303
ARG_OF_PERICENTER = 92.1979
MEAN_ANOMALY   = 63.0437

EPHEMERIS_TYPE = 0
CLASSIFICATION_TYPE = U
NORAD_CAT_ID   = 27386
ELEMENT_SET_NO = 999
REV_AT_EPOCH   = 25207
BSTAR          = .54172767E-4
MEAN_MOTION_DOT = .124E-5
MEAN_MOTION_DDOT = 0

